[{"OBJECT_NAME":"STARLINK-31299","OBJECT_ID":"2024-041G","EPOCH":"2026-03-09T22:00:01.999584","MEAN_MOTION":15.89134934,"ECCENTRICITY":0.00262489,"INCLINATION":42.9814,"RA_OF_ASC_NODE":189.8403,"ARG_OF_PERICENTER":358.8102,"MEAN_ANOMALY":68.2831,"EPHEMERIS_TYPE":0,"CLASSIFICATION_TYPE":"U","NORAD_CAT_ID":59080,"ELEMENT_SET_NO":999,"REV_AT_EPOCH":590,"BSTAR":0.0013171824,"MEAN_MOTION_DOT":0.0040128,"MEAN_MOTION_DDOT":6.7118811e-5},{"OBJECT_NAME":"STARLINK-36373","OBJECT_ID":"2026-040AA","EPOCH":"2026-03-09T22:00:01.999584","MEAN_MOTION":16.06603265,"ECCENTRICITY":8.725e-5,"INCLINATION":97.2766,"RA_OF_ASC_NODE":17.1272,"ARG_OF_PERICENTER":96.133,"MEAN_ANOMALY":292.8748,"EPHEMERIS_TYPE":0,"CLASSIFICATION_TYPE":"U","NORAD_CAT_ID":68039,"ELEMENT_SET_NO":999,"REV_AT_EPOCH":241,"BSTAR":-0.0015605454,"MEAN_MOTION_DOT":-0.01162336,"MEAN_MOTION_DDOT":0.00046793907}]
